EARTHCARE               
1 59908U 24101A   24243.85087054  .00030617  00000+0  42394-3 0  9992
2 59908  96.9869   9.9001 0004177 171.0139 189.1193 15.57038318 14592
